0 KSLV-1 R/B
1 39069U 13003B   13281.83781215  .00018339 -31002-6  40967-3 0  1734
2 39069 080.2727 278.9203 0801845 196.8603 160.4448 14.04244891 35197
0 KSLV-1 R/B
1 39069U 13003B   13283.12042555  .00021702 -32045-6  48435-3 0  1740
2 39069 080.2735 277.5301 0801712 193.3247 164.5592 14.04301906 35375
0 KSLV-1 R/B
1 39069U 13003B   13284.47424669  .00021083 -35178-6  46979-3 0  1753
2 39069 080.2738 276.0625 0801592 189.5972 168.9076 14.04347257 35564
0 KSLV-1 R/B
1 39069U 13003B   13286.11302544  .00019203 -39521-6  42690-3 0  1767
2 39069 080.2740 274.2862 0801428 185.0909 174.1749 14.04405274 35794
0 KSLV-1 R/B
1 39069U 13003B   13288.46419481  .00026279 -40653-6  58418-3 0  1771
2 39069 080.2740 271.7376 0801085 178.6306 181.7351 14.04506708 36129
0 KSLV-1 R/B
1 39069U 13003B   13289.46160618  .00022852 -44765-6  50730-3 0  1788
2 39069 080.2740 270.6562 0800914 175.8908 184.9408 14.04547147 36266
0 KSLV-1 R/B
1 39069U 13003B   13291.17138768  .00020950 -49340-6  46418-3 0  1790
2 39069 080.2739 268.8024 0800679 171.1942 190.4305 14.04611090 36505
0 KSLV-1 R/B
1 39069U 13003B   13293.16603527  .00017891 -54868-6  39552-3 0  1805
2 39069 080.2736 266.6393 0800391 165.7059 196.8293 14.04674410 36787
